*******************************************************************************
Ephemeris / WWW_USER Wed Mar 14 15:32:24 2018 Pasadena, USA      / Horizons    
*******************************************************************************
Target body name: Venus (299)                     {source: DE431mx}
Center body name: Solar System Barycenter (0)     {source: DE431mx}
Center-site name: BODY CENTER
*******************************************************************************
Start time      : A.D. 2000-Jan-01 00:00:00.0000 TDB
Stop  time      : A.D. 2001-Jan-01 00:00:00.0000 TDB
Step-size       : 7200 minutes
*******************************************************************************
Center geodetic : 0.00000000,0.00000000,0.0000000 {E-lon(deg),Lat(deg),Alt(km)}
Center cylindric: 0.00000000,0.00000000,0.0000000 {E-lon(deg),Dxy(km),Dz(km)}
Center radii    : (undefined)                                                  
Output units    : AU-D                                                         
Output type     : GEOMETRIC cartesian states
Output format   : 2 (position and velocity)
Reference frame : ICRF/J2000.0                                                 
Coordinate systm: Ecliptic and Mean Equinox of Reference Epoch                 
*******************************************************************************
JDTDB
   X     Y     Z
   VX    VY    VZ
*******************************************************************************
$$SOE
2451754.500000000 = A.D. 2000-Jul-29 00:00:00.0000 TDB 
  -6.710382993199543E-01  2.652658050677179E-01  4.225942190656410E-02
  -7.677532240584250E-03 -1.884705039731560E-02  1.858908582754946E-04
2451759.500000000 = A.D. 2000-Aug-03 00:00:00.0000 TDB 
  -7.026910772641558E-01  1.686664289257770E-01  4.276782562346277E-02
  -4.963205646410800E-03 -1.972842987625239E-02  1.717310149858330E-05
2451764.500000000 = A.D. 2000-Aug-08 00:00:00.0000 TDB 
  -7.205132071680544E-01  6.863610677883863E-02  4.243102914222279E-02
  -2.154643655274140E-03 -2.021732513907222E-02 -1.516195922505828E-04
2451769.500000000 = A.D. 2000-Aug-13 00:00:00.0000 TDB 
  -7.241750979672618E-01 -3.283811682986013E-02  4.125716672124372E-02
   6.913563975739242E-04 -2.030527556738419E-02 -3.170932200728468E-04
2451774.500000000 = A.D. 2000-Aug-18 00:00:00.0000 TDB 
  -7.136325362740731E-01 -1.337477363262467E-01  3.927113806369672E-02
   3.517650605932799E-03 -1.999215270108287E-02 -4.759476547769460E-04
2451779.500000000 = A.D. 2000-Aug-23 00:00:00.0000 TDB 
  -6.891253023142553E-01 -2.321042095616719E-01  3.651396225530951E-02
   6.267988023963729E-03 -1.928603289807763E-02 -6.250464526242130E-04
2451784.500000000 = A.D. 2000-Aug-28 00:00:00.0000 TDB 
  -6.511697238617383E-01 -3.259792665673311E-01  3.304179703521305E-02
   8.888190677726391E-03 -1.820288120610533E-02 -7.614806474171027E-04
2451789.500000000 = A.D. 2000-Sep-02 00:00:00.0000 TDB 
  -6.005455402582538E-01 -4.135432053052529E-01  2.892465712713212E-02
   1.132724516779881E-02 -1.676606593943262E-02 -8.826251313023763E-04
2451794.500000000 = A.D. 2000-Sep-07 00:00:00.0000 TDB 
  -5.382775788370376E-01 -4.931003857826327E-01  2.424487138343668E-02
   1.353828276712192E-02 -1.500572765960036E-02 -9.861866130642966E-04
2451799.500000000 = A.D. 2000-Sep-12 00:00:00.0000 TDB 
  -4.656128461278686E-01 -5.631212593960656E-01  1.909532258445205E-02
   1.547943111426938E-02 -1.295802877301490E-02 -1.070242521881648E-03
2451804.500000000 = A.D. 2000-Sep-17 00:00:00.0000 TDB 
  -3.839937051901979E-01 -6.222704040877320E-01  1.357751601639807E-02
   1.711452678987185E-02 -1.066431073134026E-02 -1.133270575457587E-03
2451809.500000000 = A.D. 2000-Sep-22 00:00:00.0000 TDB 
  -2.950278489683243E-01 -6.694301695097163E-01  7.799523404484350E-03
   1.841368400296436E-02 -8.170185104904616E-03 -1.174169124113529E-03
2451814.500000000 = A.D. 2000-Sep-27 00:00:00.0000 TDB 
  -2.004557901031922E-01 -7.037196643276139E-01  1.873847261322636E-03
   1.935371972214896E-02 -5.524583352088561E-03 -1.192268729450842E-03
2451819.500000000 = A.D. 2000-Oct-02 00:00:00.0000 TDB 
  -1.021165763297945E-01 -7.245089366699035E-01 -4.084751798671527E-03
   1.991843921988787E-02 -2.778787784378672E-03 -1.187335478430978E-03
2451824.500000000 = A.D. 2000-Oct-07 00:00:00.0000 TDB 
  -1.912413391709043E-03 -7.314283026287441E-01 -9.961424754061671E-03
   2.009878888588353E-02  1.453733458453103E-05 -1.159566582435885E-03
2451829.500000000 = A.D. 2000-Oct-12 00:00:00.0000 TDB 
   9.822716295100259E-02 -7.243728633742132E-01 -1.564336411601853E-02
   1.989288541307842E-02  2.802299134245930E-03 -1.109579011165191E-03
2451834.500000000 = A.D. 2000-Oct-17 00:00:00.0000 TDB 
   1.963809726988449E-01 -7.035023207900694E-01 -2.102186129001631E-02
   1.930593142349055E-02  5.531901571502771E-03 -1.038391954492762E-03
2451839.500000000 = A.D. 2000-Oct-22 00:00:00.0000 TDB 
   2.906711926341148E-01 -6.692362560051678E-01 -2.599426233099269E-02
   1.835002757707671E-02  8.152133484022273E-03 -9.474038306506644E-04
2451844.500000000 = A.D. 2000-Oct-27 00:00:00.0000 TDB 
   3.792971788996237E-01 -6.222450760880270E-01 -3.046579644435424E-02
   1.704389057647439E-02  1.061401228644719E-02 -8.383644750601729E-04
2451849.500000000 = A.D. 2000-Nov-01 00:00:00.0000 TDB 
   4.605676619833731E-01 -5.634368640607661E-01 -3.435125454171927E-02
   1.541248540819089E-02  1.287157821999940E-02 -7.133430569734619E-04
2451854.500000000 = A.D. 2000-Nov-06 00:00:00.0000 TDB 
   5.329309033785908E-01 -4.939403895241530E-01 -3.757649766702109E-02
   1.348657881952066E-02  1.488263527694799E-02 -5.746921792814761E-04
2451859.500000000 = A.D. 2000-Nov-11 00:00:00.0000 TDB 
   5.950024346409839E-01 -4.150845549601561E-01 -4.007977716273613E-02
   1.130221961738761E-02  1.660943545877030E-02 -4.250085294333352E-04
2451864.500000000 = A.D. 2000-Nov-16 00:00:00.0000 TDB 
   6.455900241813346E-01 -3.283745694729711E-01 -4.181285009612086E-02
   8.900150085986651E-03  1.801930293044737E-02 -2.670903768323020E-04
2451869.500000000 = A.D. 2000-Nov-21 00:00:00.0000 TDB 
   6.837155359970538E-01 -2.354651603520385E-01 -4.274187480893862E-02
   6.325151837100256E-03  1.908519397394731E-02 -1.038921635210343E-04
2451874.500000000 = A.D. 2000-Nov-26 00:00:00.0000 TDB 
   7.086333595703700E-01 -1.381311559253930E-01 -4.284807263260663E-02
   3.625328873050679E-03  1.978618754327939E-02  6.152358135185819E-05
2451879.500000000 = A.D. 2000-Dec-01 00:00:00.0000 TDB 
   7.198451038618635E-01 -3.823580253118219E-02 -4.212814299942848E-02
   8.513306634974899E-04  2.010789984173049E-02  2.260367518865934E-04
2451884.500000000 = A.D. 2000-Dec-06 00:00:00.0000 TDB 
   7.171102637189504E-01  6.230278493704206E-02 -4.059442057039318E-02
  -1.944481295083406E-03  2.004281484503235E-02  3.865222895948261E-04
2451889.500000000 = A.D. 2000-Dec-11 00:00:00.0000 TDB 
   7.004525874800709E-01  1.615465954416565E-01 -3.827476478462426E-02
  -4.708918604565858E-03  1.959052127077663E-02  5.399045122604005E-04
2451894.500000000 = A.D. 2000-Dec-16 00:00:00.0000 TDB 
   6.701619035709032E-01  2.575736231972467E-01 -3.521217460169686E-02
  -7.388895890274103E-03  1.875784535952441E-02  6.832126046342793E-04
2451899.500000000 = A.D. 2000-Dec-21 00:00:00.0000 TDB 
   6.267912047659202E-01  3.485141490854077E-01 -3.146412431948864E-02
  -9.932395963955313E-03  1.755886820715382E-02  8.136365650967298E-04
2451904.500000000 = A.D. 2000-Dec-26 00:00:00.0000 TDB 
   5.711488443748836E-01  4.325867967137639E-01 -2.710162032978870E-02
  -1.228945748178980E-02  1.601481648236219E-02  9.285827201271959E-04
2451909.500000000 = A.D. 2000-Dec-31 00:00:00.0000 TDB 
   5.042857709880397E-01  5.081337040052057E-01 -2.220798358600209E-02
  -1.441316885673588E-02  1.415381636426702E-02  1.025727730191739E-03
